NORAD_CAT_ID,OBJECT_NAME,OBJECT_TYPE,EPOCH,MEAN_MOTION,ECCENTRICITY,INCLINATION,RA_OF_ASC_NODE,ARG_OF_PERICENTER,MEAN_ANOMALY,BSTAR,MEAN_MOTION_DOT,MEAN_MOTION_DDOT,TLE_LINE0,TLE_LINE1,TLE_LINE2,SEMIMAJOR_AXIS,PERIOD,APOGEE,PERIGEE,DECAYED
52569.0,STARLINK-3927,PAYLOAD,2024-04-29 14:33:43,15.08841687,0.0001364,53.2182,287.6433,89.5109,270.6039,0.00011133,1.484e-05,0.0,0 STARLINK-3927,1 52569U 22051AN  24120.60675631  .00001484  00000-0  11133-3 0  9999,2 52569  53.2182 287.6433 0001364  89.5109 270.6039 15.08841687109060,6917.875,95.437,540.684,538.797,0.0
52569.0,STARLINK-3927,PAYLOAD,2024-04-29 17:44:29,15.08843105,0.0001136,53.2181,287.0482,92.3845,267.7277,0.00016391,2.322e-05,0.0,0 STARLINK-3927,1 52569U 22051AN  24120.73923442  .00002322  00000-0  16391-3 0  9992,2 52569  53.2181 287.0482 0001136  92.3845 267.7277 15.08843105109083,6917.871,95.437,540.522,538.95,0.0
52569.0,STARLINK-3927,PAYLOAD,2024-04-30 14:24:31,15.08835475,0.0001392,53.2182,283.1823,87.0315,273.0837,0.00019757,2.857e-05,0.0,0 STARLINK-3927,1 52569U 22051AN  24121.60036165  .00002857  00000-0  19757-3 0  9998,2 52569  53.2182 283.1823 0001392  87.0315 273.0837 15.08835475109215,6917.894,95.438,540.722,538.796,0.0
52569.0,STARLINK-3927,PAYLOAD,2024-04-30 17:35:17,15.08838847,0.0001347,53.2182,282.5881,84.7147,275.3999,0.00016063,2.269e-05,0.0,0 STARLINK-3927,1 52569U 22051AN  24121.73284157  .00002269  00000-0  16063-3 0  9992,2 52569  53.2182 282.5881 0001347  84.7147 275.3999 15.08838847109309,6917.884,95.438,540.681,538.817,0.0
52569.0,STARLINK-3927,PAYLOAD,2024-05-01 09:29:08,15.08842927,0.0001374,53.2176,279.6137,86.3924,273.7226,8.282e-05,1.031e-05,0.0,0 STARLINK-3927,1 52569U 22051AN  24122.39524053  .00001031  00000-0  82820-4 0  9998,2 52569  53.2176 279.6137 0001374  86.3924 273.7226 15.08842927109336,6917.871,95.437,540.687,538.786,0.0
52569.0,STARLINK-3927,PAYLOAD,2024-05-01 17:26:03,15.08847368,0.0001368,53.2176,278.1271,85.6652,274.4496,0.00011372,1.523e-05,0.0,0 STARLINK-3927,1 52569U 22051AN  24122.72643486  .00001523  00000-0  11372-3 0  9996,2 52569  53.2176 278.1271 0001368  85.6652 274.4496 15.08847368109388,6917.858,95.437,540.669,538.777,0.0
52569.0,STARLINK-3927,PAYLOAD,2024-05-02 02:58:22,15.088482,0.0001113,53.2171,276.3439,81.2249,278.8869,6.516e-05,7.5e-06,0.0,0 STARLINK-3927,1 52569U 22051AN  24123.12387318  .00000750  00000-0  65160-4 0  9996,2 52569  53.2171 276.3439 0001113  81.2249 278.8869 15.08848200109514,6917.855,95.437,540.49,538.95,0.0
52569.0,STARLINK-3927,PAYLOAD,2024-05-02 10:55:19,15.08830767,0.00016,53.2194,274.8583,98.6238,261.4935,-1.6708e-05,-5.54e-06,0.0,0 STARLINK-3927,1 52569U 22051AN  24123.45508780 -.00000554  00000-0 -16708-4 0  9998,2 52569  53.2194 274.8583 0001600  98.6238 261.4935 15.08830767109569,6917.909,95.438,540.88,538.667,0.0
52569.0,STARLINK-3927,PAYLOAD,2024-05-02 14:06:05,15.08830681,0.0001535,53.2182,274.2626,96.9788,263.1378,-3.5581e-05,-8.54e-06,0.0,0 STARLINK-3927,1 52569U 22051AN  24123.58756805 -.00000854  00000-0 -35581-4 0  9998,2 52569  53.2182 274.2626 0001535  96.9788 263.1378 15.08830681109516,6917.909,95.438,540.836,538.712,0.0
52569.0,STARLINK-3927,PAYLOAD,2024-05-03 02:49:10,15.08841606,0.0001403,53.2181,271.8841,92.6086,267.5067,6.9396e-05,8.17e-06,0.0,0 STARLINK-3927,1 52569U 22051AN  24124.11747949  .00000817  00000-0  69396-4 0  9995,2 52569  53.2181 271.8841 0001403  92.6086 267.5067 15.08841606109663,6917.875,95.437,540.711,538.77,0.0
52569.0,STARLINK-3927,PAYLOAD,2024-05-03 13:56:50,15.08867797,0.0002343,53.2194,269.8036,93.7791,266.3469,-7.6112e-06,-4.1e-06,0.0,0 STARLINK-3927,1 52569U 22051AN  24124.58114377 -.00000410  00000-0 -76112-5 0  9995,2 52569  53.2194 269.8036 0002343  93.7791 266.3469 15.08867797109739,6917.795,95.436,541.281,538.04,0.0
52569.0,STARLINK-3927,PAYLOAD,2024-05-03 17:07:37,15.0885882,0.0001542,53.217,269.2076,95.4568,264.66,0.00028057,4.182e-05,0.0,0 STARLINK-3927,1 52569U 22051AN  24124.71362696  .00004182  00000-0  28057-3 0  9990,2 52569  53.2170 269.2076 0001542  95.4568 264.6600 15.08858820109759,6917.823,95.436,540.755,538.621,0.0
52569.0,STARLINK-3927,PAYLOAD,2024-05-04 02:39:56,15.08851192,0.0001496,53.2177,267.4223,74.8446,285.2711,0.00018759,2.7e-05,0.0,0 STARLINK-3927,1 52569U 22051AN  24125.11106933  .00002700  00000-0  18759-3 0  9997,2 52569  53.2177 267.4223 0001496  74.8446 285.2711 15.08851192109818,6917.846,95.437,540.746,538.676,0.0
52569.0,STARLINK-3927,PAYLOAD,2024-05-04 09:01:29,15.08837229,0.0002201,53.2168,266.2343,80.1582,279.9658,0.00018057,2.587e-05,0.0,0 STARLINK-3927,1 52569U 22051AN  24125.37604046  .00002587  00000-0  18057-3 0  9997,2 52569  53.2168 266.2343 0002201  80.1582 279.9658 15.08837229109853,6917.889,95.438,541.276,538.231,0.0
52569.0,STARLINK-3927,PAYLOAD,2024-05-05 13:38:26,15.0884452,0.0001459,53.2163,260.8811,70.268,289.847,0.0010327,0.00016188,0.0,0 STARLINK-3927,1 52569U 22051AN  24126.56836403  .00016188  00000-0  10327-2 0  9996,2 52569  53.2163 260.8811 0001459  70.2680 289.8470 15.08844520109967,6917.867,95.437,540.741,538.722,0.0
52569.0,STARLINK-3927,PAYLOAD,2024-05-05 15:13:49,15.08846845,0.0001474,53.216,260.5838,70.1956,289.9195,0.0010486,0.00016443,0.0,0 STARLINK-3927,1 52569U 22051AN  24126.63460367  .00016443  00000-0  10486-2 0  9996,2 52569  53.2160 260.5838 0001474  70.1956 289.9195 15.08846845110040,6917.859,95.437,540.744,538.705,0.0
52569.0,STARLINK-3927,PAYLOAD,2024-05-06 02:21:31,15.08850203,0.0001495,53.2165,258.5023,68.4313,291.6838,0.00077663,0.00012097,0.0,0 STARLINK-3927,1 52569U 22051AN  24127.09828314  .00012097  00000-0  77663-3 0  9999,2 52569  53.2165 258.5023 0001495  68.4313 291.6838 15.08850203110113,6917.849,95.437,540.748,538.68,0.0
52569.0,STARLINK-3927,PAYLOAD,2024-05-06 11:53:50,15.08844284,0.0001554,53.2168,256.7186,70.0715,290.0444,0.00035477,5.363e-05,0.0,0 STARLINK-3927,1 52569U 22051AN  24127.49572416  .00005363  00000-0  35477-3 0  9997,2 52569  53.2168 256.7186 0001554  70.0715 290.0444 15.08844284110171,6917.867,95.437,540.807,538.657,0.0
52569.0,STARLINK-3927,PAYLOAD,2024-05-06 15:04:36,15.08851728,0.0001482,53.2168,256.1226,82.8209,277.2952,0.0005267,8.107e-05,0.0,0 STARLINK-3927,1 52569U 22051AN  24127.62820164  .00008107  00000-0  52670-3 0  9991,2 52569  53.2168 256.1226 0001482  82.8209 277.2952 15.08851728110126,6917.845,95.437,540.735,538.684,0.0
52569.0,STARLINK-3927,PAYLOAD,2024-05-07 13:20:01,15.08831325,0.000139,53.2168,251.9601,81.4235,278.6914,-4.8178e-05,-1.054e-05,0.0,0 STARLINK-3927,1 52569U 22051AN  24128.55557061 -.00001054  00000-0 -48178-4 0  9992,2 52569  53.2168 251.9601 0001390  81.4235 278.6914 15.08831325110335,6917.907,95.438,540.733,538.81,0.0
52569.0,STARLINK-3927,PAYLOAD,2024-05-07 14:55:24,15.08832589,0.0001452,53.2167,251.6626,72.733,287.3821,-1.2504e-05,-4.87e-06,0.0,0 STARLINK-3927,1 52569U 22051AN  24128.62181217 -.00000487  00000-0 -12504-4 0  9999,2 52569  53.2167 251.6626 0001452  72.7330 287.3821 15.08832589110276,6917.903,95.438,540.773,538.764,0.0
52569.0,STARLINK-3927,PAYLOAD,2024-05-08 13:10:47,15.08847195,0.0001308,53.2165,247.4974,91.0904,269.0238,0.00021543,3.143e-05,0.0,0 STARLINK-3927,1 52569U 22051AN  24129.54916618  .00003143  00000-0  21543-3 0  9994,2 52569  53.2165 247.4974 0001308  91.0904 269.0238 15.08847195110485,6917.858,95.437,540.628,538.819,0.0
52569.0,STARLINK-3927,PAYLOAD,2024-05-08 14:46:10,15.0885197,0.0001252,53.2171,247.2033,85.0923,275.0212,0.00032239,4.848e-05,0.0,0 STARLINK-3927,1 52569U 22051AN  24129.61540444  .00004848  00000-0  32239-3 0  9999,2 52569  53.2171 247.2033 0001252  85.0923 275.0212 15.08851970110427,6917.844,95.437,540.575,538.843,0.0
52569.0,STARLINK-3927,PAYLOAD,2024-05-09 13:01:35,15.08843815,0.0001232,53.2168,243.0419,89.4294,270.6839,0.00025165,3.72e-05,0.0,0 STARLINK-3927,1 52569U 22051AN  24130.54276729  .00003720  00000-0  25165-3 0  9993,2 52569  53.2168 243.0419 0001232  89.4294 270.6839 15.08843815110630,6917.869,95.437,540.586,538.881,0.0
52569.0,STARLINK-3927,PAYLOAD,2024-05-09 14:36:58,15.08847561,0.0001104,53.2159,242.7431,85.3842,274.7276,0.00032792,4.936e-05,0.0,0 STARLINK-3927,1 52569U 22051AN  24130.60900568  .00004936  00000-0  32792-3 0  9999,2 52569  53.2159 242.7431 0001104  85.3842 274.7276 15.08847561110577,6917.857,95.437,540.486,538.959,0.0
52569.0,STARLINK-3927,PAYLOAD,2024-05-10 14:27:44,15.08846866,0.0001208,53.2171,238.2849,96.9938,263.1192,-1.5041e-05,-5.27e-06,0.0,0 STARLINK-3927,1 52569U 22051AN  24131.60260043 -.00000527  00000-0 -15041-4 0  9990,2 52569  53.2171 238.2849 0001208  96.9938 263.1192 15.08846866110726,6917.859,95.437,540.56,538.889,0.0
52569.0,STARLINK-3927,PAYLOAD,2024-05-10 16:03:07,15.08854906,0.0001237,53.2174,237.9844,86.9983,273.115,8.4959e-05,1.065e-05,0.0,0 STARLINK-3927,1 52569U 22051AN  24131.66883622  .00001065  00000-0  84959-4 0  9990,2 52569  53.2174 237.9844 0001237  86.9983 273.1150 15.08854906110809,6917.835,95.437,540.556,538.844,0.0
52569.0,STARLINK-3927,PAYLOAD,2024-05-11 12:43:05,15.08892964,0.0001285,53.2177,234.1202,87.971,272.143,0.00066763,0.00010369,0.0,0 STARLINK-3927,1 52569U 22051AN  24132.52992870  .00010369  00000-0  66763-3 0  9991,2 52569  53.2177 234.1202 0001285  87.9710 272.1430 15.08892964110931,6917.719,95.434,540.472,538.695,0.0
52569.0,STARLINK-3927,PAYLOAD,2024-05-11 15:53:53,15.08789092,0.000236,53.2158,233.5242,48.3919,311.7275,-0.002103,-0.00033557,0.0,0 STARLINK-3927,1 52569U 22051AN  24132.66242720 -.00033557  00000-0 -21030-2 0  9991,2 52569  53.2158 233.5242 0002360  48.3919 311.7275 15.08789092110950,6918.036,95.441,541.534,538.268,0.0
52569.0,STARLINK-3927,PAYLOAD,2024-05-11 23:50:54,15.08727435,0.0002313,53.2181,232.0423,80.472,279.6534,-0.0023724,-0.00037733,0.0,0 STARLINK-3927,1 52569U 22051AN  24132.99368265 -.00037733  00000-0 -23724-2 0  9992,2 52569  53.2181 232.0423 0002313  80.4720 279.6534 15.08727435111006,6918.224,95.445,541.69,538.489,0.0
